IRIDIUM 36              
1 24967U 97056C   24268.77332175  .00000862  00000+0  28420-3 0  9996
2 24967  86.3908 284.4705 0002386  95.9972 264.1497 14.37048212414097
IRIDIUM 39              
1 25042U 97069D   24268.50930694  .00001392  00000+0  36572-3 0  9992
2 25042  86.3931 325.0505 0020325 111.7257 248.6113 14.48367124410753
IRIDIUM 38              
1 25043U 97069E   24268.74892620  .00001026  00000+0  33597-3 0  9993
2 25043  86.4009 344.8423 0000897 152.8949 207.2295 14.37544108407817
IRIDIUM 42              
1 25077U 97077A   24268.64165738  .00000969  00000+0  32825-3 0  9999
2 25077  86.4021 350.7247 0001476  97.9139 262.2225 14.35820661403080
IRIDIUM 44              
1 25078U 97077B   24268.61468449  .00000929  00000+0  29081-3 0  9998
2 25078  86.3988 333.3808 0002979 132.3285 227.8166 14.39664094405484
IRIDIUM 45              
1 25104U 97082A   24268.45653250  .00020410  00000+0  10262-2 0  9999
2 25104  86.3708 175.4992 0144301 236.9437 121.7874 15.08382175411792
IRIDIUM 24              
1 25105U 97082B   24268.50982734  .00001261  00000+0  38253-3 0  9992
2 25105  86.3982 192.8458 0009401 229.0287 131.0100 14.41483623404934
IRIDIUM 51              
1 25262U 98018A   24268.71538046  .00028891  00000+0  11539-2 0  9997
2 25262  86.3988 184.8705 0131165 172.5303 187.7937 15.17313387406474
